{
    "links": {
        "self": "http://www.neowsapp.com/rest/v1/neo/3690382?api_key=iIulBulltgU6a56xZRHN4H3l9WmuAYTsLGpBGhQ2"
    },
    "id": "3690382",
    "neo_reference_id": "3690382",
    "name": "(2014 SA145)",
    "designation": "2014 SA145",
    "nasa_jpl_url": "http://ssd.jpl.nasa.gov/sbdb.cgi?sstr=3690382",
    "absolute_magnitude_h": 24.6,
    "estimated_diameter": {
        "kilometers": {
            "estimated_diameter_min": 0.0319561887,
            "estimated_diameter_max": 0.0714562102
        },
        "meters": {
            "estimated_diameter_min": 31.9561886721,
            "estimated_diameter_max": 71.4562101727
        },
        "miles": {
            "estimated_diameter_min": 0.0198566489,
            "estimated_diameter_max": 0.0444008168
        },
        "feet": {
            "estimated_diameter_min": 104.8431420431,
            "estimated_diameter_max": 234.436392583
        }
    },
    "is_potentially_hazardous_asteroid": false,
    "close_approach_data": [
        {
            "close_approach_date": "2012-08-09",
            "close_approach_date_full": "2012-Aug-09 07:19",
            "epoch_date_close_approach": 1344496740000,
            "relative_velocity": {
                "kilometers_per_second": "9.441988893",
                "kilometers_per_hour": "33991.1600147838",
                "miles_per_hour": "21120.7849547416"
            },
            "miss_distance": {
                "astronomical": "0.2728324959",
                "lunar": "106.1318409051",
                "kilometers": "40815160.253423733",
                "miles": "25361364.5593761954"
            },
            "orbiting_body": "Earth"
        },
        {
            "close_approach_date": "2014-09-19",
            "close_approach_date_full": "2014-Sep-19 11:11",
            "epoch_date_close_approach": 1411125060000,
            "relative_velocity": {
                "kilometers_per_second": "5.0672651878",
                "kilometers_per_hour": "18242.1546761728",
                "miles_per_hour": "11334.9654986475"
            },
            "miss_distance": {
                "astronomical": "0.1033556122",
                "lunar": "40.2053331458",
                "kilometers": "15461779.437666014",
                "miles": "9607504.2366744332"
            },
            "orbiting_body": "Earth"
        },
        {
            "close_approach_date": "2016-10-07",
            "close_approach_date_full": "2016-Oct-07 00:52",
            "epoch_date_close_approach": 1475801520000,
            "relative_velocity": {
                "kilometers_per_second": "12.7689233719",
                "kilometers_per_hour": "45968.1241387885",
                "miles_per_hour": "28562.8046905711"
            },
            "miss_distance": {
                "astronomical": "0.3417466713",
                "lunar": "132.9394551357",
                "kilometers": "51124574.106070131",
                "miles": "31767337.2785085678"
            },
            "orbiting_body": "Earth"
        }
    ],
    "orbital_data": {
        "orbit_id": "12",
        "orbit_determination_date": "2017-04-06 08:38:31",
        "first_observation_date": "2014-09-22",
        "last_observation_date": "2014-10-23",
        "data_arc_in_days": 31,
        "observations_used": 33,
        "orbit_uncertainty": "8",
        "minimum_orbit_intersection": ".100059",
        "jupiter_tisserand_invariant": "4.274",
        "epoch_osculation": "2456927.5",
        "eccentricity": ".329636722218399",
        "semi_major_axis": "1.611548100091462",
        "inclination": "5.813071674147477",
        "ascending_node_longitude": "208.6760319461826",
        "orbital_period": "747.2455468928516",
        "perihelion_distance": "1.080322666680024",
        "perihelion_argument": "134.4427764031138",
        "aphelion_distance": "2.1427735335029",
        "perihelion_time": "2456908.415056338900",
        "mean_anomaly": "9.194540866204962",
        "mean_motion": ".481769348103751",
        "equinox": "J2000",
        "orbit_class": {
            "orbit_class_type": "AMO",
            "orbit_class_description": "Near-Earth asteroid orbits similar to that of 1221 Amor",
            "orbit_class_range": "1.017 AU < q (perihelion) < 1.3 AU"
        }
    },
    "is_sentry_object": false
}